STARLINK-34578          
1 64856U 25152Q   26179.55066944  .00005117  00000+0  35817-3 0  9998
2 64856  97.3019  33.4605 0002168  82.4479 277.6995 15.05660783 52106
STARLINK-34683          
1 64857U 25152R   26179.57558753  .00003682  00000+0  25893-3 0  9993
2 64857  97.3017  33.4226 0002806  81.7291 278.4255 15.05660334 52107
STARLINK-34654          
1 64858U 25152S   26179.55345886  .00011570  00000+0  80447-3 0  9994
2 64858  97.3026  33.4408 0002170  75.8604 284.2864 15.05650300 52109
STARLINK-34575          
1 64859U 25152T   26179.61435716  .00003258  00000+0  22960-3 0  9994
2 64859  97.3028  33.5215 0000962  61.6175 298.5149 15.05658662 52116
STARLINK-34570          
1 64860U 25152U   26179.60604236  .00003894  00000+0  27358-3 0  9992
2 64860  97.3013  33.3865 0002802  84.5918 275.5630 15.05660082 52103
STARLINK-34651          
1 64861U 25152V   26179.59219936  .00005130  00000+0  35910-3 0  9998
2 64861  97.3008  33.4172 0002575  84.9838 275.1684 15.05658635 52108
STARLINK-34684          
1 64862U 25152W   26179.56728000  .00003882  00000+0  27277-3 0  9992
2 64862  97.3019  33.4387 0002164  99.9782 260.1690 15.05660219 52109
STARLINK-34690          
1 64863U 25152X   26179.55897469  .00003327  00000+0  23431-3 0  9990
2 64863  97.3021  33.4466 0001698  78.9814 281.1605 15.05660769 52104
STARLINK-34628          
1 64864U 25152Y   26179.57004977  .00003530  00000+0  24837-3 0  9994
2 64864  97.3016  33.4267 0002448  85.9907 274.1601 15.05659525 52109
STARLINK-34544          
1 64865U 25152Z   26179.56175310  .00000223  00000+0  19391-4 0  9990
2 64865  97.3013  33.4362 0002097  86.9091 273.2377 15.05643836 52106
O3B MPOWER F9           
1 64866U 25153A   26179.56962959 -.00000021  00000+0  00000+0 0  9994
2 64866   0.0596   8.1250 0006535 109.4344 242.5063  5.00115813 20123
O3B MPOWER F10          
1 64867U 25153B   26179.53565359 -.00000022  00000+0  00000+0 0  9996
2 64867   0.0572   4.3282 0002004 247.6945 107.9547  5.00114946 22602
LIDE                    
1 64869U 25154A   26179.44166276  .00003391  00000+0  31981-3 0  9991
2 64869  97.6714 243.0167 0005510 178.3488 181.7752 14.94422908 50685
TRACERS 1               
1 64870U 25154B   26179.63120489  .00001197  00000+0  11903-3 0  9994
2 64870  97.6687 242.9977 0004730 204.2717 155.8281 14.93502222 50709
ATHENA EPIC             
1 64871U 25154C   26179.58758043  .00002114  00000+0  20283-3 0  9993
2 64871  97.6670 243.1222 0006227 194.3700 165.7344 14.94141338 50711
SKYCRAFT-4B             
1 64872U 25154D   26179.59756554  .00006734  00000+0  57849-3 0  9990
2 64872  97.6669 244.0105 0004353 195.4585 164.6505 14.97755284 50756
TRACERS 2               
1 64873U 25154E   26179.42986236  .00001136  00000+0  11319-3 0  9998
2 64873  97.6688 242.8129 0002391 253.8260 106.2697 14.93512718 50673
PEXT (BARD)             
1 64874U 25154F   26179.62399255  .00002797  00000+0  13108-3 0  9992
2 64874  97.3964 244.4198 0001588 212.3973 147.7166 15.20509556 51589
REAL                    
1 64875U 25154G   26179.45106416  .00021705  00000+0  67750-3 0  9991
2 64875  97.4035 247.7944 0001925 122.8029 237.3399 15.33220146 51771
IONOSFERA-M 3           
1 64876U 25155A   26179.64878991  .00000041  00000+0  38443-4 0  9996
2 64876  98.6029 141.2655 0001628 137.6174 222.5130 14.21488287 48032
IONOSFERA-M 4           
1 64877U 25155B   26179.61322378  .00000032  00000+0  34400-4 0  9996
2 64877  98.6028 141.1481 0001432 114.7042 245.4285 14.21490622 48021
INNOSAT 16 (RS92S7)     
1 64878U 25155C   26179.61218014  .00005335  00000+0  21269-3 0  9997
2 64878  97.4566 146.7043 0011780 138.1245 222.0896 15.25573466 82416
GEOSCAN 6 (RS92S6)      
1 64879U 25155D   26179.62500526  .00009411  00000+0  32264-3 0  9997
2 64879  97.4557 148.2225 0009529 128.0795 232.1306 15.30359564 82518
GEOSCAN 1 (RS92S1)      
1 64880U 25155E   26179.62293197  .00010096  00000+0  33937-3 0  9991
2 64880  97.4553 148.3785 0009490 128.0961 232.1138 15.30979302 82522
239ALFEROV (RS61S)      
1 64881U 25155F   26179.57599553  .00013905  00000+0  43457-3 0  9991
2 64881  97.4553 148.9315 0009182 126.6116 233.5972 15.33239938 82553
2025-155G               
1 64882U 25155G   26179.61001317  .00008568  00000+0  30004-3 0  9996
2 64882  97.4582 148.1737 0008972 128.8335 231.3708 15.29701294 82501
2025-155H               
1 64883U 25155H   26179.61006965  .00008674  00000+0  30363-3 0  9997
2 64883  97.4573 148.1484 0008964 124.7913 235.4172 15.29713280 82507
2025-155J               
1 64884U 25155J   26179.60970312  .00009008  00000+0  31505-3 0  9994
2 64884  97.4569 148.1399 0009453 119.9239 240.2942 15.29723901 82509
2025-155K               
1 64885U 25155K   26179.57490027  .00035859  00000+0  88324-3 0  9995
2 64885  97.4506 150.4038 0009828 118.6642 241.5593 15.40451002 82663
2025-155L               
1 64886U 25155L   26179.60673383  .00031054  00000+0  71835-3 0  9990
2 64886  97.4458 150.7489 0009496 116.0050 244.2176 15.42380714 82692
