OBJECT_NAME,OBJECT_ID,EPOCH,MEAN_MOTION,ECCENTRICITY,INCLINATION,RA_OF_ASC_NODE,ARG_OF_PERICENTER,MEAN_ANOMALY,EPHEMERIS_TYPE,CLASSIFICATION_TYPE,NORAD_CAT_ID,ELEMENT_SET_NO,REV_AT_EPOCH,BSTAR,MEAN_MOTION_DOT,MEAN_MOTION_DDOT
STARLINK-34578,2025-152Q,2026-06-28T13:12:57.839616,15.05660783,.00021686,97.3019,33.4605,82.4479,277.6995,0,U,64856,999,5210,.35817473E-3,.5117E-4,0
STARLINK-34683,2025-152R,2026-06-28T13:48:50.762592,15.05660334,.00028063,97.3017,33.4226,81.7291,278.4255,0,U,64857,999,5210,.25892819E-3,.3682E-4,0
STARLINK-34654,2025-152S,2026-06-28T13:16:58.845504,15.05650300,.00021704,97.3026,33.4408,75.8604,284.2864,0,U,64858,999,5210,.80446758E-3,.1157E-3,0
STARLINK-34575,2025-152T,2026-06-28T14:44:40.458624,15.05658662,.00009629,97.3028,33.5215,61.6175,298.5149,0,U,64859,999,5211,.22960325E-3,.3258E-4,0
STARLINK-34570,2025-152U,2026-06-28T14:32:42.059904,15.05660082,.00028024,97.3013,33.3865,84.5918,275.5630,0,U,64860,999,5210,.27357628E-3,.3894E-4,0
STARLINK-34651,2025-152V,2026-06-28T14:12:46.024704,15.05658635,.00025756,97.3008,33.4172,84.9838,275.1684,0,U,64861,999,5210,.35910339E-3,.513E-4,0
STARLINK-34684,2025-152W,2026-06-28T13:36:52.992000,15.05660219,.00021643,97.3019,33.4387,99.9782,260.1690,0,U,64862,999,5210,.27277044E-3,.3882E-4,0
STARLINK-34690,2025-152X,2026-06-28T13:24:55.413216,15.05660769,.00016981,97.3021,33.4466,78.9814,281.1605,0,U,64863,999,5210,.2343085E-3,.3327E-4,0
STARLINK-34628,2025-152Y,2026-06-28T13:40:52.300128,15.05659525,.00024483,97.3016,33.4267,85.9907,274.1601,0,U,64864,999,5210,.24836512E-3,.353E-4,0
STARLINK-34544,2025-152Z,2026-06-28T13:28:55.467840,15.05643836,.00020976,97.3013,33.4362,86.9091,273.2377,0,U,64865,999,5210,.19391146E-4,.223E-5,0
O3B MPOWER F9,2025-153A,2026-06-28T13:40:15.996576,5.00115813,.00065353,0.0596,8.1250,109.4344,242.5063,0,U,64866,999,2012,0,-.21E-6,0
O3B MPOWER F10,2025-153B,2026-06-28T12:51:20.470176,5.00114946,.0002004,0.0572,4.3282,247.6945,107.9547,0,U,64867,999,2260,0,-.22E-6,0
LIDE,2025-154A,2026-06-28T10:35:59.662464,14.94422908,.00055109,97.6714,243.0167,178.3488,181.7752,0,U,64869,999,5068,.31981265E-3,.3391E-4,0
TRACERS 1,2025-154B,2026-06-28T15:08:56.102496,14.93502222,.00047302,97.6687,242.9977,204.2717,155.8281,0,U,64870,999,5070,.11903054E-3,.1197E-4,0
ATHENA EPIC,2025-154C,2026-06-28T14:06:06.949152,14.94141338,.0006227,97.6670,243.1222,194.3700,165.7344,0,U,64871,999,5071,.20282684E-3,.2114E-4,0
SKYCRAFT-4B,2025-154D,2026-06-28T14:20:29.662656,14.97755284,.00043531,97.6669,244.0105,195.4585,164.6505,0,U,64872,999,5075,.57848831E-3,.6734E-4,0
TRACERS 2,2025-154E,2026-06-28T10:19:00.107904,14.93512718,.0002391,97.6688,242.8129,253.8260,106.2697,0,U,64873,999,5067,.11319003E-3,.1136E-4,0
PEXT (BARD),2025-154F,2026-06-28T14:58:32.956320,15.20509556,.00015885,97.3964,244.4198,212.3973,147.7166,0,U,64874,999,5158,.13107606E-3,.2797E-4,0
REAL,2025-154G,2026-06-28T10:49:31.943424,15.33220146,.00019254,97.4035,247.7944,122.8029,237.3399,0,U,64875,999,5177,.67750491E-3,.21705E-3,0
IONOSFERA-M 3,2025-155A,2026-06-28T15:34:15.448224,14.21488287,.00016287,98.6029,141.2655,137.6174,222.5130,0,U,64876,999,4803,.38443215E-4,.41E-6,0
IONOSFERA-M 4,2025-155B,2026-06-28T14:43:02.534592,14.21490622,.00014322,98.6028,141.1481,114.7042,245.4285,0,U,64877,999,4802,.34399739E-4,.32E-6,0
INNOSAT 16 (RS92S7),2025-155C,2026-06-28T14:41:32.364096,15.25573466,.00117802,97.4566,146.7043,138.1245,222.0896,0,U,64878,999,8241,.21268957E-3,.5335E-4,0
GEOSCAN 6 (RS92S6),2025-155D,2026-06-28T15:00:00.454464,15.30359564,.00095293,97.4557,148.2225,128.0795,232.1306,0,U,64879,999,8251,.32264289E-3,.9411E-4,0
GEOSCAN 1 (RS92S1),2025-155E,2026-06-28T14:57:01.322208,15.30979302,.00094905,97.4553,148.3785,128.0961,232.1138,0,U,64880,999,8252,.33937033E-3,.10096E-3,0
239ALFEROV (RS61S),2025-155F,2026-06-28T13:49:26.013792,15.33239938,.0009182,97.4553,148.9315,126.6116,233.5972,0,U,64881,999,8255,.43456537E-3,.13905E-3,0
2025-155G,2025-155G,2026-06-28T14:38:25.137888,15.29701294,.00089726,97.4582,148.1737,128.8335,231.3708,0,U,64882,999,8250,.30004079E-3,.8568E-4,0
2025-155H,2025-155H,2026-06-28T14:38:30.017760,15.29713280,.00089646,97.4573,148.1484,124.7913,235.4172,0,U,64883,999,8250,.30363008E-3,.8674E-4,0
2025-155J,2025-155J,2026-06-28T14:37:58.349568,15.29723901,.00094537,97.4569,148.1399,119.9239,240.2942,0,U,64884,999,8250,.315047E-3,.9008E-4,0
2025-155K,2025-155K,2026-06-28T13:47:51.383328,15.40451002,.00098289,97.4506,150.4038,118.6642,241.5593,0,U,64885,999,8266,.88324392E-3,.35859E-3,0
2025-155L,2025-155L,2026-06-28T14:33:41.802912,15.42380714,.00094966,97.4458,150.7489,116.0050,244.2176,0,U,64886,999,8269,.71834805E-3,.31054E-3,0
